IRIDIUM 63              
1 25286U 98021B   24212.37810903  .00000771  00000+0  25972-3 0  9997
2 25286  86.3980 216.9325 0002160  93.4187 266.7257 14.35852467377656
IRIDIUM 69              
1 25319U 98026A   24212.38887115  .00000854  00000+0  26442-3 0  9994
2 25319  86.3957 231.1811 0003379  48.0499 312.0987 14.40105755376731
IRIDIUM 71              
1 25320U 98026B   24212.51858848  .00000864  00000+0  26598-3 0  9995
2 25320  86.3960 225.8793 0004385  79.8401 280.3293 14.40411101377529
IRIDIUM 73              
1 25344U 98032C   24212.41400713  .00001233  00000+0  30894-3 0  9996
2 25344  86.4461 183.3140 0002564  75.0177 285.1311 14.50664954383899
IRIDIUM 82              
1 25467U 98051A   24212.18646237  .00015858  00000+0  76009-3 0  9996
2 25467  86.3724 265.3451 0125392  63.1538 298.2455 15.11989923374984
